{
  "norad_id": 66343,
  "name": "STARLINK-35467",
  "history": [
    {
      "epoch": "2026-03-28T17:30:56.835072Z",
      "apogee_km": 483.50941383816826,
      "perigee_km": 482.5282685528764,
      "latitude_deg": -1.2661225501906544e-05,
      "longitude_deg": 16.333790005763063,
      "height_km": 482.9547523226812,
      "semi_major_axis_km": 6861.155841195522,
      "eccentricity": 7.15e-05,
      "inclination_deg": 43.0014,
      "raan_deg": 105.2167,
      "arg_perigee_deg": 251.0005,
      "mean_anomaly_deg": 109.0769,
      "mean_motion_rev_day": 15.27590104
    },
    {
      "epoch": "2026-03-29T02:55:53.122368Z",
      "apogee_km": 483.61911979777597,
      "perigee_km": 482.3978359027178,
      "latitude_deg": 3.6827431487510034e-05,
      "longitude_deg": -127.5030740653657,
      "height_km": 482.92728340450014,
      "semi_major_axis_km": 6861.145477850247,
      "eccentricity": 8.9e-05,
      "inclination_deg": 43.0001,
      "raan_deg": 103.001,
      "arg_perigee_deg": 256.4972,
      "mean_anomaly_deg": 103.5781,
      "mean_motion_rev_day": 15.27593565
    },
    {
      "epoch": "2026-03-30T00:54:04.426272Z",
      "apogee_km": 483.31698587453684,
      "perigee_km": 482.63910770791335,
      "latitude_deg": 5.162344323704835e-05,
      "longitude_deg": -103.12172529236459,
      "height_km": 483.04551304931243,
      "semi_major_axis_km": 6861.115046791225,
      "eccentricity": 4.94e-05,
      "inclination_deg": 42.9988,
      "raan_deg": 97.8317,
      "arg_perigee_deg": 149.6541,
      "mean_anomaly_deg": 210.434,
      "mean_motion_rev_day": 15.27603728
    },
    {
      "epoch": "2026-03-30T07:10:42.007584Z",
      "apogee_km": 483.688812321584,
      "perigee_km": 482.3349704223383,
      "latitude_deg": -5.093078038470625e-05,
      "longitude_deg": 160.98608526114202,
      "height_km": 482.8261535183747,
      "semi_major_axis_km": 6861.148891371961,
      "eccentricity": 9.866e-05,
      "inclination_deg": 43.0009,
      "raan_deg": 96.354,
      "arg_perigee_deg": 266.7975,
      "mean_anomaly_deg": 93.2763,
      "mean_motion_rev_day": 15.27592425
    },
    {
      "epoch": "2026-03-30T08:44:51.353664Z",
      "apogee_km": 483.7499915767248,
      "perigee_km": 482.24987259789395,
      "latitude_deg": -2.3515352366136355e-05,
      "longitude_deg": 137.01342523954014,
      "height_km": 482.77427769076434,
      "semi_major_axis_km": 6861.136932087309,
      "eccentricity": 0.00010932,
      "inclination_deg": 43.0008,
      "raan_deg": 95.9847,
      "arg_perigee_deg": 270.167,
      "mean_anomaly_deg": 89.9056,
      "mean_motion_rev_day": 15.27596419
    },
    {
      "epoch": "2026-03-31T09:51:21.788640Z",
      "apogee_km": 483.9548658530657,
      "perigee_km": 482.0776543211059,
      "latitude_deg": 1.0327861874665655e-05,
      "longitude_deg": 113.44708267003178,
      "height_km": 482.79375976930925,
      "semi_major_axis_km": 6861.153260087086,
      "eccentricity": 0.0001368,
      "inclination_deg": 43.0007,
      "raan_deg": 90.0763,
      "arg_perigee_deg": 269.9543,
      "mean_anomaly_deg": 90.1152,
      "mean_motion_rev_day": 15.27590966
    },
    {
      "epoch": "2026-03-31T23:58:45.389280Z",
      "apogee_km": 483.7620832411585,
      "perigee_km": 482.08030065714775,
      "latitude_deg": -1.6068622881062375e-05,
      "longitude_deg": -102.30580078739266,
      "height_km": 482.7997775273048,
      "semi_major_axis_km": 6861.058191949152,
      "eccentricity": 0.00012256,
      "inclination_deg": 43.0006,
      "raan_deg": 86.7518,
      "arg_perigee_deg": 263.0337,
      "mean_anomaly_deg": 97.0375,
      "mean_motion_rev_day": 15.27622716
    },
    {
      "epoch": "2026-04-02T07:21:53.901504Z",
      "apogee_km": 484.06055883151294,
      "perigee_km": 481.79187966743575,
      "latitude_deg": -4.6072940232412464e-05,
      "longitude_deg": 138.23453626061834,
      "height_km": 482.84246117531603,
      "semi_major_axis_km": 6861.063219249474,
      "eccentricity": 0.00016533,
      "inclination_deg": 43.0039,
      "raan_deg": 79.3666,
      "arg_perigee_deg": 262.965,
      "mean_anomaly_deg": 97.1013,
      "mean_motion_rev_day": 15.27621037
    },
    {
      "epoch": "2026-04-02T23:03:27.842688Z",
      "apogee_km": 483.53514211936454,
      "perigee_km": 482.4207598290268,
      "latitude_deg": -3.937746146418456e-05,
      "longitude_deg": -101.49325656125575,
      "height_km": 482.73866365038737,
      "semi_major_axis_km": 6861.114950974195,
      "eccentricity": 8.121e-05,
      "inclination_deg": 42.9998,
      "raan_deg": 75.6747,
      "arg_perigee_deg": 271.59,
      "mean_anomaly_deg": 88.4858,
      "mean_motion_rev_day": 15.2760376
    },
    {
      "epoch": "2026-04-03T05:20:05.065440Z",
      "apogee_km": 483.83763646627995,
      "perigee_km": 482.09958119345083,
      "latitude_deg": 2.7117891482170018e-05,
      "longitude_deg": 162.61593207345405,
      "height_km": 482.8527249028127,
      "semi_major_axis_km": 6861.105608829865,
      "eccentricity": 0.00012666,
      "inclination_deg": 43.0003,
      "raan_deg": 74.1967,
      "arg_perigee_deg": 262.8928,
      "mean_anomaly_deg": 97.178,
      "mean_motion_rev_day": 15.2760688
    },
    {
      "epoch": "2026-04-04T08:00:45.534240Z",
      "apogee_km": 484.0566995864274,
      "perigee_km": 481.92645638553495,
      "latitude_deg": 1.0733678213138984e-05,
      "longitude_deg": 115.07667147389671,
      "height_km": 482.6494622253958,
      "semi_major_axis_km": 6861.128577985981,
      "eccentricity": 0.00015524,
      "inclination_deg": 43.0024,
      "raan_deg": 67.9217,
      "arg_perigee_deg": 276.4264,
      "mean_anomaly_deg": 83.6411,
      "mean_motion_rev_day": 15.27599209
    },
    {
      "epoch": "2026-04-05T05:58:56.989344Z",
      "apogee_km": 483.8760211679519,
      "perigee_km": 482.16210438346934,
      "latitude_deg": 1.1841266512232409e-05,
      "longitude_deg": 139.4549723529026,
      "height_km": 482.7367047857704,
      "semi_major_axis_km": 6861.15606277571,
      "eccentricity": 0.0001249,
      "inclination_deg": 43.0015,
      "raan_deg": 62.75,
      "arg_perigee_deg": 273.9548,
      "mean_anomaly_deg": 86.1161,
      "mean_motion_rev_day": 15.2759003
    },
    {
      "epoch": "2026-04-06T05:31:18.327072Z",
      "apogee_km": 485.59570416886163,
      "perigee_km": 480.5147168892772,
      "latitude_deg": 2.3255906731001365e-05,
      "longitude_deg": 139.85935233234653,
      "height_km": 484.1366887716064,
      "semi_major_axis_km": 6861.19221052907,
      "eccentricity": 0.00037027,
      "inclination_deg": 43.0022,
      "raan_deg": 57.21,
      "arg_perigee_deg": 239.1312,
      "mean_anomaly_deg": 120.9176,
      "mean_motion_rev_day": 15.27577958
    },
    {
      "epoch": "2026-04-07T05:03:38.701440Z",
      "apogee_km": 484.0293016557871,
      "perigee_km": 481.7399159653596,
      "latitude_deg": 1.8507150379568655e-06,
      "longitude_deg": 140.27072169096172,
      "height_km": 482.7435039746327,
      "semi_major_axis_km": 6861.0216088105735,
      "eccentricity": 0.00016684,
      "inclination_deg": 43.0024,
      "raan_deg": 51.673,
      "arg_perigee_deg": 265.9057,
      "mean_anomaly_deg": 94.1604,
      "mean_motion_rev_day": 15.27634934
    },
    {
      "epoch": "2026-04-08T04:35:59.036928Z",
      "apogee_km": 484.29955537274964,
      "perigee_km": 481.58421479318986,
      "latitude_deg": 6.582416482355743e-06,
      "longitude_deg": 140.6807809874442,
      "height_km": 482.70909712740246,
      "semi_major_axis_km": 6861.0788850829695,
      "eccentricity": 0.00019788,
      "inclination_deg": 43.0028,
      "raan_deg": 46.1345,
      "arg_perigee_deg": 270.4328,
      "mean_anomaly_deg": 89.6297,
      "mean_motion_rev_day": 15.27615805
    },
    {
      "epoch": "2026-04-09T05:42:29.286144Z",
      "apogee_km": 484.1497461715826,
      "perigee_km": 481.79103467290315,
      "latitude_deg": -4.651754765135312e-05,
      "longitude_deg": 117.1172173245211,
      "height_km": 482.7507312168025,
      "semi_major_axis_km": 6861.107390422242,
      "eccentricity": 0.00017189,
      "inclination_deg": 43.0027,
      "raan_deg": 40.2282,
      "arg_perigee_deg": 269.8504,
      "mean_anomaly_deg": 90.215,
      "mean_motion_rev_day": 15.27606285
    },
    {
      "epoch": "2026-04-10T05:14:49.791840Z",
      "apogee_km": 484.6924195716538,
      "perigee_km": 481.3030190203208,
      "latitude_deg": -3.793342753796919e-05,
      "longitude_deg": 117.52476975364604,
      "height_km": 483.2405565532534,
      "semi_major_axis_km": 6861.1347192959865,
      "eccentricity": 0.000247,
      "inclination_deg": 43.0021,
      "raan_deg": 34.6879,
      "arg_perigee_deg": 254.0668,
      "mean_anomaly_deg": 105.9911,
      "mean_motion_rev_day": 15.27597158
    },
    {
      "epoch": "2026-04-11T18:54:35.284032Z",
      "apogee_km": 483.8481289936353,
      "perigee_km": 482.15754413790637,
      "latitude_deg": 2.4529672509783344e-05,
      "longitude_deg": -97.8231670553531,
      "height_km": 482.62941270756147,
      "semi_major_axis_km": 6861.139836565771,
      "eccentricity": 0.0001232,
      "inclination_deg": 43.0004,
      "raan_deg": 25.8262,
      "arg_perigee_deg": 280.2235,
      "mean_anomaly_deg": 79.8478,
      "mean_motion_rev_day": 15.27595449
    },
    {
      "epoch": "2026-04-13T03:51:52.558272Z",
      "apogee_km": 484.0841883156072,
      "perigee_km": 481.9354143603641,
      "latitude_deg": 3.358284604365022e-05,
      "longitude_deg": 118.74726036960259,
      "height_km": 482.84546652334257,
      "semi_major_axis_km": 6861.146801337985,
      "eccentricity": 0.00015659,
      "inclination_deg": 43.0046,
      "raan_deg": 18.072,
      "arg_perigee_deg": 266.8878,
      "mean_anomaly_deg": 93.1795,
      "mean_motion_rev_day": 15.27593123
    }
  ]
}